{
  "type": "Feature",
  "geometry": {
    "type": "Polygon",
    "coordinates": [
      [
        [
          80.09721575866568,
          16.287358758272905
        ],
        [
          80.09683657108336,
          16.28735713947121
        ],
        [
          80.09683484496291,
          16.287734135591442
        ],
        [
          80.09721403367638,
          16.28773575439597
        ],
        [
          80.09721575866568,
          16.287358758272905
        ]
      ]
    ]
  },
  "properties": {
    "provenance": "SIMULATED_PRECOMPUTED",
    "case_id": "C01"
  }
}